
# Worst residual: 22.37 km
# MJD 60061.000000 (2023 Apr 27  0:00)
XL8D89E
1 89996U 00000AAD 23117.49919926  .00000000  00000-0  00000-0 2 18705
2 89996 066.1957 306.3048 1304335 047.5589 077.9311 00.01197068    08

# Worst residual: 23.64 km
# MJD 60062.000000 (2023 Apr 28  0:00)
XL8D89E
1 89996U 00000AAD 23118.49919926  .00000000  00000-0  00000-0 2 18706
2 89996 066.3561 306.1700 1222652 045.0815 085.7462 00.01209425    05

# Worst residual: 25.48 km
# MJD 60063.000000 (2023 Apr 29  0:00)
XL8D89E
1 89996U 00000AAD 23119.49919926  .00000000  00000-0  00000-0 2 18707
2 89996 066.5410 306.0380 1155904 041.8421 094.3018 00.01221958    03

# Worst residual: 27.17 km
# MJD 60064.000000 (2023 Apr 30  0:00)
XL8D89E
1 89996U 00000AAD 23120.49919926  .00000000  00000-0  00000-0 2 18709
2 89996 066.7562 305.9082 1106568 037.9348 103.5035 00.01234639    08

# Worst residual: 28.21 km
# MJD 60065.000000 (2023 May  1  0:00)
XL8D89E
1 89996U 00000AAD 23121.49919926  .00000000  00000-0  00000-0 2 18700
2 89996 067.0025 305.7844 1076149 033.5568 113.1555 00.01247403    04

# Worst residual: 28.64 km
# MJD 60066.000000 (2023 May  2  0:00)
XL8D89E
1 89996U 00000AAD 23122.49919926  .00000000  00000-0  00000-0 2 18701
2 89996 067.2761 305.6720 1065369 028.9800 122.9834 00.01260214    07

# Worst residual: 28.40 km
# MJD 60067.000000 (2023 May  3  0:00)
XL8D89E
1 89996U 00000AAD 23123.49919926  .00000000  00000-0  00000-0 2 18702
2 89996 067.5699 305.5764 1074007 024.5104 132.6751 00.01273077    02

# Worst residual: 27.35 km
# MJD 60068.000000 (2023 May  4  0:00)
XL8D89E
1 89996U 00000AAD 23124.49919926  .00000000  00000-0  00000-0 2 18703
2 89996 067.8735 305.5020 1100734 020.4334 141.9388 00.01286020    09

# Worst residual: 25.44 km
# MJD 60069.000000 (2023 May  5  0:00)
XL8D89E
1 89996U 00000AAD 23125.49919926  .00000000  00000-0  00000-0 2 18704
2 89996 068.1741 305.4512 1143154 016.9594 150.5584 00.01299068    06

# Worst residual: 22.76 km
# MJD 60070.000000 (2023 May  6  0:00)
XL8D89E
1 89996U 00000AAD 23126.49919926  .00000000  00000-0  00000-0 2 18705
2 89996 068.4570 305.4242 1198020 014.1967 158.4244 00.01312204    03

# Worst residual: 19.12 km
# MJD 60071.000000 (2023 May  7  0:00)
XL8D89E
1 89996U 00000AAD 23127.49919926  .00000000  00000-0  00000-0 2 18706
2 89996 068.7066 305.4181 1261536 012.1536 165.5325 00.01325342    07

# Worst residual: 15.14 km
# MJD 60072.000000 (2023 May  8  0:00)
XL8D89E
1 89996U 00000AAD 23128.49919926  .00000000  00000-0  00000-0 2 18707
2 89996 068.9079 305.4273 1329635 010.7622 171.9608 00.01338293    04

# Worst residual: 10.77 km
# MJD 60073.000000 (2023 May  9  0:00)
XL8D89E
1 89996U 00000AAD 23129.49919926  .00000000  00000-0  00000-0 2 18708
2 89996 069.0488 305.4435 1398192 009.9073 177.8396 00.01350757    02

# Worst residual: 10.83 km
# MJD 60074.000000 (2023 May 10  0:00)
XL8D89E
1 89996U 00000AAD 23130.49919926  .00000000  00000-0  00000-0 2 18700
2 89996 069.1213 305.4567 1463208 009.4522 183.3238 00.01362323    09

# Worst residual: 10.69 km
# MJD 60075.000000 (2023 May 11  0:00)
XL8D89E
1 89996U 00000AAD 23131.49919926  .00000000  00000-0  00000-0 2 18701
2 89996 069.1224 305.4566 1521069 009.2579 188.5697 00.01372518    03

# Worst residual: 10.19 km
# MJD 60076.000000 (2023 May 12  0:00)
XL8D89E
1 89996U 00000AAD 23132.49919926  .00000000  00000-0  00000-0 2 18702
2 89996 069.0553 305.4339 1568264 009.1803 193.7389 00.01380746    00

# Worst residual: 9.29 km
# MJD 60077.000000 (2023 May 13  0:00)
XL8D89E
1 89996U 00000AAD 23133.49919926  .00000000  00000-0  00000-0 2 18703
2 89996 068.9276 305.3811 1602474 009.0967 198.9619 00.01386517    01

# Worst residual: 9.46 km
# MJD 60078.000000 (2023 May 14  0:00)
XL8D89E
1 89996U 00000AAD 23134.49919926  .00000000  00000-0  00000-0 2 18704
2 89996 068.7515 305.2938 1621882 008.8805 204.3691 00.01389315    07

# Worst residual: 13.17 km
# MJD 60079.000000 (2023 May 15  0:00)
XL8D89E
1 89996U 00000AAD 23135.49919926  .00000000  00000-0  00000-0 2 18705
2 89996 068.5418 305.1714 1625834 008.4112 210.0765 00.01388736    08

# Worst residual: 16.68 km
# MJD 60080.000000 (2023 May 16  0:00)
XL8D89E
1 89996U 00000AAD 23136.49919926  .00000000  00000-0  00000-0 2 18706
2 89996 068.3145 305.0167 1614945 007.5697 216.1908 00.01384513    08

# Worst residual: 19.25 km
# MJD 60081.000000 (2023 May 17  0:00)
XL8D89E
1 89996U 00000AAD 23137.49919926  .00000000  00000-0  00000-0 2 18707
2 89996 068.0843 304.8354 1592011 006.2384 222.8182 00.01376647    00

# Worst residual: 22.38 km
# MJD 60082.000000 (2023 May 18  0:00)
XL8D89E
1 89996U 00000AAD 23138.49919926  .00000000  00000-0  00000-0 2 18708
2 89996 067.8658 304.6371 1558083 004.3216 230.0100 00.01364936    01

# Worst residual: 24.39 km
# MJD 60083.000000 (2023 May 19  0:00)
XL8D89E
1 89996U 00000AAD 23139.49919926  .00000000  00000-0  00000-0 2 18709
2 89996 067.6673 304.4295 1520150 001.7300 237.8505 00.01349930    09

# Worst residual: 25.70 km
# MJD 60084.000000 (2023 May 20  0:00)
XL8D89E
1 89996U 00000AAD 23140.49919926  .00000000  00000-0  00000-0 2 18701
2 89996 067.4954 304.2219 1482902 358.4295 246.3412 00.01331936    09

# Worst residual: 26.28 km
# MJD 60085.000000 (2023 May 21  0:00)
XL8D89E
1 89996U 00000AAD 23141.49919926  .00000000  00000-0  00000-0 2 18702
2 89996 067.3525 304.0216 1452091 354.4498 255.4286 00.01311456    09

# Worst residual: 26.31 km
# MJD 60086.000000 (2023 May 22  0:00)
XL8D89E
1 89996U 00000AAD 23142.49919926  .00000000  00000-0  00000-0 2 18703
2 89996 067.2383 303.8342 1433023 349.9055 264.9781 00.01289039    05

# Worst residual: 26.27 km
# MJD 60087.000000 (2023 May 23  0:00)
XL8D89E
1 89996U 00000AAD 23143.49919926  .00000000  00000-0  00000-0 2 18704
2 89996 067.1506 303.6630 1429808 344.9974 274.7738 00.01265247    06

# Worst residual: 25.38 km
# MJD 60088.000000 (2023 May 24  0:00)
XL8D89E
1 89996U 00000AAD 23144.49919926  .00000000  00000-0  00000-0 2 18705
2 89996 067.0860 303.5098 1444736 339.9870 284.5439 00.01240633    00

# Worst residual: 24.27 km
# MJD 60089.000000 (2023 May 25  0:00)
XL8D89E
1 89996U 00000AAD 23145.49919926  .00000000  00000-0  00000-0 2 18706
2 89996 067.0408 303.3747 1478010 335.1474 294.0104 00.01215723    04
